{
  "type": "FeatureCollection",
  "generator": "overpass-turbo",
  "copyright": "The data included in this document is from www.openstreetmap.org. The data is made available under ODbL.",
  "timestamp": "2026-01-30T05:31:12Z",
  "features": [
    {
      "type": "Feature",
      "properties": {
        "@id": "relation/55752",
        "TMC:cid_58:tabcd_1:Class": "Area",
        "TMC:cid_58:tabcd_1:LCLversion": "9.00",
        "TMC:cid_58:tabcd_1:LocationCode": "32537",
        "admin_level": "10",
        "boundary": "administrative",
        "geographical_region": "Teltow",
        "name": "Friedenau",
        "name:de": "Friedenau",
        "name:prefix": "Ortsteil",
        "name:ru": "Фриденау",
        "ref:DE-BE:OT": "0702",
        "type": "boundary",
        "wikidata": "Q692390",
        "wikipedia": "de:Berlin-Friedenau"
      },
      "geometry": {
        "type": "Polygon",
        "coordinates": [
          [
            [
              13.3204861,
              52.4774738
            ],
            [
              13.3204002,
              52.477472
            ],
            [
              13.3204008,
              52.4773546
            ],
            [
              13.3204008,
              52.4768214
            ],
            [
              13.3204001,
              52.4767523
            ],
            [
              13.3203897,
              52.4763951
            ],
            [
              13.3203248,
              52.4753373
            ],
            [
              13.3203253,
              52.4750189
            ],
            [
              13.3203092,
              52.4744136
            ],
            [
              13.3203073,
              52.4743784
            ],
            [
              13.3203017,
              52.4742756
            ],
            [
              13.3202643,
              52.4735926
            ],
            [
              13.3202586,
              52.4734821
            ],
            [
              13.3202465,
              52.4727887
            ],
            [
              13.3202211,
              52.4725697
            ],
            [
              13.3201947,
              52.4719017
            ],
            [
              13.3201857,
              52.4716713
            ],
            [
              13.3201785,
              52.4714895
            ],
            [
              13.3201505,
              52.470749
            ],
            [
              13.3201337,
              52.4705235
            ],
            [
              13.3202438,
              52.470458
            ],
            [
              13.3202551,
              52.4704396
            ],
            [
              13.3205261,
              52.4702659
            ],
            [
              13.3205224,
              52.4701306
            ],
            [
              13.3202551,
              52.4699743
            ],
            [
              13.3202501,
              52.4699678
            ],
            [
              13.3202503,
              52.4699549
            ],
            [
              13.3202616,
              52.469946
            ],
            [
              13.3202264,
              52.4699264
            ],
            [
              13.3202529,
              52.4699087
            ],
            [
              13.3202457,
              52.4699049
            ],
            [
              13.3202544,
              52.4698998
            ],
            [
              13.3201844,
              52.4698583
            ],
            [
              13.3201117,
              52.4698101
            ],
            [
              13.3201052,
              52.4696547
            ],
            [
              13.3200615,
              52.4688638
            ],
            [
              13.3200575,
              52.4688098
            ],
            [
              13.3200558,
              52.4687661
            ],
            [
              13.3200195,
              52.4678459
            ],
            [
              13.3199923,
              52.4671559
            ],
            [
              13.3200013,
              52.4669971
            ],
            [
              13.3203784,
              52.4669835
            ],
            [
              13.3210337,
              52.4669598
            ],
            [
              13.3213988,
              52.4668327
            ],
            [
              13.3225788,
              52.4664217
            ],
            [
              13.3281485,
              52.464473
            ],
            [
              13.3293748,
              52.4656736
            ],
            [
              13.3307696,
              52.4652104
            ],
            [
              13.331437,
              52.4658215
            ],
            [
              13.3346602,
              52.4662693
            ],
            [
              13.3348484,
              52.4661983
            ],
            [
              13.3358442,
              52.4670035
            ],
            [
              13.3362902,
              52.4674461
            ],
            [
              13.3373359,
              52.4684519
            ],
            [
              13.3375677,
              52.4732251
            ],
            [
              13.3379991,
              52.4735828
            ],
            [
              13.3381417,
              52.4737032
            ],
            [
              13.3390296,
              52.4744266
            ],
            [
              13.340526,
              52.4755888
            ],
            [
              13.3409065,
              52.4758858
            ],
            [
              13.3415779,
              52.4764256
            ],
            [
              13.3422324,
              52.4769185
            ],
            [
              13.3430579,
              52.4775554
            ],
            [
              13.3438697,
              52.4781517
            ],
            [
              13.3435014,
              52.4783101
            ],
            [
              13.3433791,
              52.4785899
            ],
            [
              13.3419583,
              52.4785744
            ],
            [
              13.3403848,
              52.4785565
            ],
            [
              13.3393742,
              52.4785487
            ],
            [
              13.3370669,
              52.4785242
            ],
            [
              13.3370632,
              52.4781335
            ],
            [
              13.3329854,
              52.4778486
            ],
            [
              13.3328676,
              52.4774162
            ],
            [
              13.3288294,
              52.4774374
            ],
            [
              13.3282711,
              52.4774326
            ],
            [
              13.3271553,
              52.4774608
            ],
            [
              13.3243538,
              52.4774807
            ],
            [
              13.3224784,
              52.4774956
            ],
            [
              13.3204861,
              52.4774738
            ]
          ]
        ]
      },
      "id": "relation/55752"
    },
    {
      "type": "Feature",
      "properties": {
        "@id": "node/31901452",
        "@relations": [
          {
            "role": "label",
            "rel": 55752,
            "reltags": {
              "TMC:cid_58:tabcd_1:Class": "Area",
              "TMC:cid_58:tabcd_1:LCLversion": "9.00",
              "TMC:cid_58:tabcd_1:LocationCode": "32537",
              "admin_level": "10",
              "boundary": "administrative",
              "geographical_region": "Teltow",
              "name": "Friedenau",
              "name:de": "Friedenau",
              "name:prefix": "Ortsteil",
              "name:ru": "Фриденау",
              "ref:DE-BE:OT": "0702",
              "type": "boundary",
              "wikidata": "Q692390",
              "wikipedia": "de:Berlin-Friedenau"
            }
          }
        ]
      },
      "geometry": {
        "type": "Point",
        "coordinates": [
          13.3296424,
          52.472075
        ]
      },
      "id": "node/31901452"
    }
  ]
}